service_providerid,fname,lname,IsVerified,phone number,email,category,city,state,pincode
101,Lizzie,Mendonca,1,293249083,lmendonca0@friendfeed.com,AC Service,Saint Louis,Missouri,63131
102,Flem,Crapper,1,9449649693,fcrapper1@redcross.org,Kitchen Cleaning,Dayton,Ohio,45440
103,Janene,Kimberley,0,3373999987,jkimberley2@list-manage.com,Laptop Repair,San Jose,California,95108
104,Julee,De Roeck,0,3413672584,jderoeck3@google.it,Sofa Cleaning,Houston,Texas,77060
105,Griz,Mac Giolla Pheadair,1,154378100,gmacgiollapheadair4@altervista.org,Carpet Cleaning,Washington,District of Columbia,20414
106,Huntlee,Hachette,0,1561740675,hhachette5@mac.com,Fan Repair,Denver,Colorado,80270
107,Almire,Kanter,1,4697978668,akanter6@csmonitor.com,Tubelight Repair,Des Moines,Iowa,50330
108,Manolo,Yellowlee,1,3144344532,myellowlee7@japanpost.jp,Water Tap Repair,Los Angeles,California,90101
109,Graehme,Filipczak,1,9605549271,gfilipczak8@surveymonkey.com,Flush Tank Repair,Kansas City,Missouri,64199
110,Colette,Ricci,0,5534541822,cricci9@mayoclinic.com,Major Door Repair,Norfolk,Virginia,23504
111,Karlee,Carbery,0,4291707533,kcarberya@java.com,Bed Support Repair,Chesapeake,Virginia,23324
112,Katey,Gyer,1,3954422786,kgyerb@washingtonpost.com,Chimney Repair,Toledo,Ohio,43666
113,Lock,Clague,0,2148599976,lclaguec@people.com.cn,Microwave Repair,Raleigh,North Carolina,27626
114,Connor,Able,1,84017295,cabled@sphinn.com,Geyser Repair,Louisville,Kentucky,40225
115,Carr,Goult,0,9397263528,cgoulte@uiuc.edu,TV Repair,Fort Wayne,Indiana,46896
116,Izaak,Brikner,1,1153857456,ibriknerf@stumbleupon.com,AC Service,Washington,District of Columbia,20508
117,Marika,Divver,0,5883133886,mdivverg@sciencedaily.com,Kitchen Cleaning,Norfolk,Virginia,23504
118,Ayn,McGavin,0,3803562767,amcgavinh@ibm.com,Laptop Repair,Decatur,Georgia,30033
119,Prue,Artiss,1,2779956518,partissi@tamu.edu,Sofa Cleaning,Grand Rapids,Michigan,49505
120,Brittaney,Bakes,1,2616765195,bbakesj@dagondesign.com,Carpet Cleaning,El Paso,Texas,88584
121,Esme,Kemery,0,4159471757,ekemeryk@shinystat.com,Fan Repair,Syracuse,New York,13217
122,Sidonnie,Cammell,0,5832671759,scammelll@va.gov,Tubelight Repair,Lexington,Kentucky,40524
123,Marin,Revitt,1,3320334581,mrevittm@time.com,Water Tap Repair,Staten Island,New York,10305
124,Louisa,Tingey,1,4307142578,ltingeyn@networkadvertising.org,Flush Tank Repair,Washington,District of Columbia,20010
125,Godwin,De Winton,0,2988616248,gdewintono@aol.com,Major Door Repair,Washington,District of Columbia,20022
126,Farlay,Tomblett,1,8101013369,ftomblettp@seesaa.net,Bed Support Repair,Tucson,Arizona,85732
127,Torrence,Kleinerman,1,1214817254,tkleinermanq@princeton.edu,Chimney Repair,South Bend,Indiana,46614
128,Izzy,Cogdon,0,9620437721,icogdonr@vimeo.com,Microwave Repair,Lawrenceville,Georgia,30245
129,Kristyn,Bolderstone,1,5185543507,kbolderstones@booking.com,Geyser Repair,Buffalo,New York,14233
130,Lexine,Worboys,1,7712489939,lworboyst@mapy.cz,TV Repair,Yonkers,New York,10705
131,Talyah,Kowalski,1,4423534584,tkowalskiu@europa.eu,AC Service,Evansville,Indiana,47737
132,Lee,Drewet,0,3548619339,ldrewetv@nymag.com,Kitchen Cleaning,Spartanburg,South Carolina,29305
133,Wilhelmine,Claybourne,1,1089102054,wclaybournew@zimbio.com,Laptop Repair,Lake Charles,Louisiana,70616
134,Mariele,Feast,1,9906625325,mfeastx@theguardian.com,Sofa Cleaning,Colorado Springs,Colorado,80920
135,Raff,Perford,0,4625920876,rperfordy@home.pl,Carpet Cleaning,Chicago,Illinois,60619
136,Margarethe,Mawtus,1,9424230141,mmawtusz@wiley.com,Fan Repair,Tallahassee,Florida,32314
137,Cherice,Bambury,0,1315110369,cbambury10@networksolutions.com,Tubelight Repair,Indianapolis,Indiana,46216
138,Carrissa,Hunt,1,5452605894,chunt11@redcross.org,Water Tap Repair,Olympia,Washington,98506
139,Maynard,Hobell,0,1529636469,mhobell12@4shared.com,Flush Tank Repair,Roanoke,Virginia,24048
140,Steffen,Swallwell,0,391923994,sswallwell13@icq.com,Major Door Repair,Scottsdale,Arizona,85271
141,Jayson,Lober,1,194212,jlober14@privacy.gov.au,Bed Support Repair,Vienna,Virginia,22184
142,Goldie,Downey,0,3768438481,gdowney15@google.it,Chimney Repair,Dallas,Texas,75323
143,Ninnetta,Kerwick,1,6042724444,nkerwick16@bigcartel.com,Microwave Repair,Stockton,California,95219
144,Cory,Crutchley,0,6735913531,ccrutchley17@meetup.com,Geyser Repair,Baltimore,Maryland,21239
145,Cordy,Cheves,1,8266303428,ccheves18@opensource.org,TV Repair,Saint Louis,Missouri,63131
146,Guinna,Beeden,0,1271938618,gbeeden19@msn.com,AC Service,Annapolis,Maryland,21405
147,Kendrick,Alsobrook,1,6596541819,kalsobrook1a@nationalgeographic.com,Kitchen Cleaning,Houston,Texas,77266
148,Bert,Swithenby,0,6762287220,bswithenby1b@dropbox.com,Laptop Repair,Saint Petersburg,Florida,33742
149,Benedicto,Beckwith,1,1775653749,bbeckwith1c@ucsd.edu,Sofa Cleaning,Levittown,Pennsylvania,19058
150,Ron,Rosander,0,1287096387,rrosander1d@gov.uk,Carpet Cleaning,Murfreesboro,Tennessee,37131
